start=new Date('2023-05-08T00:00:00.000Z').valueOf();
sats=[{"LAUNCH_DATE":"2023-03-03","OBJECT_TYPE":"PAYLOAD","REF_FRAME":"TEME","TLE_LINE2":"2 55756  70.0010 338.3445 0002816 276.6183 174.8300 14.98326321  1304","ARG_OF_PERICENTER":"276.6183","APOAPSIS":"574.026","ECCENTRICITY":"0.00028160","COUNTRY_CODE":"US","OBJECT_ID":"2023-028R","INCLINATION":"70.0010","OBJECT_NAME":"STARLINK-5614","PERIOD":"96.107","EPOCH":"2023-05-07T22:00:00.999936","SITE":"AFWTR","TIME_SYSTEM":"UTC","EPHEMERIS_TYPE":"0","SEMIMAJOR_AXIS":"6950.204","RCS_SIZE":"LARGE","MEAN_MOTION_DOT":"0.00003347","REV_AT_EPOCH":"130","DECAY_DATE":null,"BSTAR":"0.00028819000000","RA_OF_ASC_NODE":"338.3445","NORAD_CAT_ID":"55756","MEAN_MOTION":"14.98326321","GP_ID":"231433039","ELEMENT_SET_NO":"999","CLASSIFICATION_TYPE":"U","PERIAPSIS":"570.112","TLE_LINE1":"1 55756U 23028R   23127.91667824  .00003347  00000-0  28819-3 0  9999","CENTER_NAME":"EARTH","MEAN_ELEMENT_THEORY":"SGP4","MEAN_MOTION_DDOT":"0.0000000000000","FILE":"3903413","MEAN_ANOMALY":"174.8300"},{"LAUNCH_DATE":"2023-03-03","OBJECT_TYPE":"PAYLOAD","REF_FRAME":"TEME","TLE_LINE2":"2 55757  70.0015 338.4751 0003277 270.0028  65.6557 14.99326411  1301","ARG_OF_PERICENTER":"270.0028","ECCENTRICITY":"0.00032770","APOAPSIS":"571.255","COUNTRY_CODE":"US","OBJECT_ID":"2023-028S","INCLINATION":"70.0015","OBJECT_NAME":"STARLINK-5544","PERIOD":"96.043","EPOCH":"2023-05-07T22:00:00.999936","SITE":"AFWTR","TIME_SYSTEM":"UTC","EPHEMERIS_TYPE":"0","SEMIMAJOR_AXIS":"6947.113","RCS_SIZE":"LARGE","MEAN_MOTION_DOT":"-0.00027976","REV_AT_EPOCH":"130","BSTAR":"-0.00228620000000","DECAY_DATE":null,"RA_OF_ASC_NODE":"338.4751","NORAD_CAT_ID":"55757","MEAN_MOTION":"14.99326411","GP_ID":"231432790","ELEMENT_SET_NO":"999","CLASSIFICATION_TYPE":"U","PERIAPSIS":"566.702","TLE_LINE1":"1 55757U 23028S   23127.91667824 -.00027976  00000-0 -22862-2 0  9997","CENTER_NAME":"EARTH","MEAN_ELEMENT_THEORY":"SGP4","MEAN_MOTION_DDOT":"0.0000000000000","FILE":"3903413","MEAN_ANOMALY":"65.6557"},{"EPHEMERIS_TYPE":"0","SEMIMAJOR_AXIS":"6947.293","SITE":"AFWTR","EPOCH":"2023-05-07T22:00:00.999936","TIME_SYSTEM":"UTC","REV_AT_EPOCH":"130","RCS_SIZE":"LARGE","MEAN_MOTION_DOT":"0.00026543","OBJECT_TYPE":"PAYLOAD","REF_FRAME":"TEME","LAUNCH_DATE":"2023-03-03","ECCENTRICITY":"0.00033030","APOAPSIS":"571.453","PERIOD":"96.047","COUNTRY_CODE":"US","INCLINATION":"70.0012","OBJECT_ID":"2023-028T","OBJECT_NAME":"STARLINK-5072","TLE_LINE2":"2 55758  70.0012 338.4321 0003303 270.9304 102.7670 14.99268072  1305","ARG_OF_PERICENTER":"270.9304","TLE_LINE1":"1 55758U 23028T   23127.91667824  .00026543  00000-0  21705-2 0  9990","CENTER_NAME":"EARTH","FILE":"3903413","MEAN_ANOMALY":"102.7670","MEAN_ELEMENT_THEORY":"SGP4","MEAN_MOTION_DDOT":"0.0000000000000","RA_OF_ASC_NODE":"338.4321","BSTAR":"0.00217050000000","DECAY_DATE":null,"GP_ID":"231431538","MEAN_MOTION":"14.99268072","PERIAPSIS":"566.864","CLASSIFICATION_TYPE":"U","ELEMENT_SET_NO":"999","NORAD_CAT_ID":"55758"},{"TIME_SYSTEM":"UTC","SITE":"AFWTR","EPOCH":"2023-05-07T20:53:24.427104","SEMIMAJOR_AXIS":"6793.264","EPHEMERIS_TYPE":"0","MEAN_MOTION_DOT":"0.00001902","RCS_SIZE":"LARGE","REV_AT_EPOCH":"1088","LAUNCH_DATE":"2023-03-03","REF_FRAME":"TEME","OBJECT_TYPE":"PAYLOAD","ARG_OF_PERICENTER":"261.9027","TLE_LINE2":"2 55759  69.9985 332.4971 0003269 261.9027  98.1788 15.50547402 10886","PERIOD":"92.870","OBJECT_NAME":"STARLINK-5081","COUNTRY_CODE":"US","INCLINATION":"69.9985","OBJECT_ID":"2023-028U","ECCENTRICITY":"0.00032690","APOAPSIS":"417.349","CENTER_NAME":"EARTH","TLE_LINE1":"1 55759U 23028U   23127.87042161  .00001902  00000-0  36017-4 0  9993","MEAN_MOTION_DDOT":"0.0000000000000","MEAN_ELEMENT_THEORY":"SGP4","MEAN_ANOMALY":"98.1788","FILE":"3903413","BSTAR":"0.00003601700000","DECAY_DATE":null,"RA_OF_ASC_NODE":"332.4971","NORAD_CAT_ID":"55759","PERIAPSIS":"412.908","CLASSIFICATION_TYPE":"U","ELEMENT_SET_NO":"999","GP_ID":"231431788","MEAN_MOTION":"15.50547402"},{"DECAY_DATE":null,"BSTAR":"-0.00270590000000","RA_OF_ASC_NODE":"338.3636","NORAD_CAT_ID":"55760","CLASSIFICATION_TYPE":"U","PERIAPSIS":"566.970","ELEMENT_SET_NO":"999","GP_ID":"231432540","MEAN_MOTION":"14.99325574","TLE_LINE1":"1 55760U 23028V   23127.91667824 -.00033069  00000-0 -27059-2 0  9994","CENTER_NAME":"EARTH","MEAN_MOTION_DDOT":"0.0000000000000","MEAN_ELEMENT_THEORY":"SGP4","MEAN_ANOMALY":"159.4879","FILE":"3903413","LAUNCH_DATE":"2023-03-03","REF_FRAME":"TEME","OBJECT_TYPE":"PAYLOAD","ARG_OF_PERICENTER":"274.0585","TLE_LINE2":"2 55760  70.0008 338.3636 0002895 274.0585 159.4879 14.99325574  1303","PERIOD":"96.043","INCLINATION":"70.0008","COUNTRY_CODE":"US","OBJECT_NAME":"STARLINK-5532","OBJECT_ID":"2023-028V","ECCENTRICITY":"0.00028950","APOAPSIS":"570.992","TIME_SYSTEM":"UTC","SITE":"AFWTR","EPOCH":"2023-05-07T22:00:00.999936","SEMIMAJOR_AXIS":"6947.116","EPHEMERIS_TYPE":"0","RCS_SIZE":"LARGE","MEAN_MOTION_DOT":"-0.00033069","REV_AT_EPOCH":"130"},{"TLE_LINE2":"2 55761  69.9996 332.6715 0003296 267.2774  92.8044 15.69917004 10860","ARG_OF_PERICENTER":"267.2774","APOAPSIS":"361.357","ECCENTRICITY":"0.00032960","PERIOD":"91.725","INCLINATION":"69.9996","COUNTRY_CODE":"US","OBJECT_ID":"2023-028W","OBJECT_NAME":"STARLINK-5611","LAUNCH_DATE":"2023-03-03","OBJECT_TYPE":"PAYLOAD","REF_FRAME":"TEME","MEAN_MOTION_DOT":"-0.00000860","RCS_SIZE":"LARGE","REV_AT_EPOCH":"1086","SITE":"AFWTR","EPOCH":"2023-05-07T16:19:40.435968","TIME_SYSTEM":"UTC","EPHEMERIS_TYPE":"0","SEMIMAJOR_AXIS":"6737.271","NORAD_CAT_ID":"55761","GP_ID":"231433290","MEAN_MOTION":"15.69917004","PERIAPSIS":"356.916","CLASSIFICATION_TYPE":"U","ELEMENT_SET_NO":"999","DECAY_DATE":null,"BSTAR":"-0.00000538640000","RA_OF_ASC_NODE":"332.6715","MEAN_ELEMENT_THEORY":"SGP4","MEAN_MOTION_DDOT":"0.0000000000000","FILE":"3903413","MEAN_ANOMALY":"92.8044","TLE_LINE1":"1 55761U 23028W   23127.68032912 -.00000860  00000-0 -53864-5 0  9992","CENTER_NAME":"EARTH"},{"NORAD_CAT_ID":"55762","ELEMENT_SET_NO":"999","PERIAPSIS":"356.819","CLASSIFICATION_TYPE":"U","MEAN_MOTION":"15.69912296","GP_ID":"231432038","BSTAR":"0.00000340430000","DECAY_DATE":null,"RA_OF_ASC_NODE":"332.6683","MEAN_MOTION_DDOT":"0.0000000000000","MEAN_ELEMENT_THEORY":"SGP4","MEAN_ANOMALY":"94.2892","FILE":"3903413","TLE_LINE1":"1 55762U 23028X   23127.67991133  .00000196  00000-0  34043-5 0  9999","CENTER_NAME":"EARTH","ARG_OF_PERICENTER":"265.7909","TLE_LINE2":"2 55762  69.9977 332.6683 0003459 265.7909  94.2892 15.69912296 10863","OBJECT_ID":"2023-028X","COUNTRY_CODE":"US","INCLINATION":"69.9977","OBJECT_NAME":"STARLINK-5603","PERIOD":"91.725","ECCENTRICITY":"0.00034590","APOAPSIS":"361.480","LAUNCH_DATE":"2023-03-03","REF_FRAME":"TEME","OBJECT_TYPE":"PAYLOAD","RCS_SIZE":"LARGE","MEAN_MOTION_DOT":"0.00000196","REV_AT_EPOCH":"1086","TIME_SYSTEM":"UTC","EPOCH":"2023-05-07T16:19:04.338912","SITE":"AFWTR","SEMIMAJOR_AXIS":"6737.285","EPHEMERIS_TYPE":"0"},{"ARG_OF_PERICENTER":"272.3796","TLE_LINE2":"2 55763  70.0013 338.3858 0002811 272.3796 142.9104 14.99295199  1308","COUNTRY_CODE":"US","INCLINATION":"70.0013","OBJECT_NAME":"STARLINK-5593","OBJECT_ID":"2023-028Y","PERIOD":"96.045","APOAPSIS":"571.028","ECCENTRICITY":"0.00028110","LAUNCH_DATE":"2023-03-03","REF_FRAME":"TEME","OBJECT_TYPE":"PAYLOAD","MEAN_MOTION_DOT":"-0.00000201","RCS_SIZE":"LARGE","REV_AT_EPOCH":"130","TIME_SYSTEM":"UTC","EPOCH":"2023-05-07T22:00:00.999936","SITE":"AFWTR","SEMIMAJOR_AXIS":"6947.210","EPHEMERIS_TYPE":"0","NORAD_CAT_ID":"55763","ELEMENT_SET_NO":"999","CLASSIFICATION_TYPE":"U","PERIAPSIS":"567.122","MEAN_MOTION":"14.99295199","GP_ID":"231432288","BSTAR":"-0.00000876210000","DECAY_DATE":null,"RA_OF_ASC_NODE":"338.3858","MEAN_MOTION_DDOT":"0.0000000000000","MEAN_ELEMENT_THEORY":"SGP4","MEAN_ANOMALY":"142.9104","FILE":"3903413","TLE_LINE1":"1 55763U 23028Y   23127.91667824 -.00000201  00000-0 -87621-5 0  9993","CENTER_NAME":"EARTH"},{"TLE_LINE2":"2 55764  69.9978 332.6698 0003513 273.0590  87.0203 15.69914705 10864","ARG_OF_PERICENTER":"273.0590","APOAPSIS":"361.510","ECCENTRICITY":"0.00035130","INCLINATION":"69.9978","COUNTRY_CODE":"US","OBJECT_NAME":"STARLINK-5499","OBJECT_ID":"2023-028Z","PERIOD":"91.725","LAUNCH_DATE":"2023-03-03","OBJECT_TYPE":"PAYLOAD","REF_FRAME":"TEME","MEAN_MOTION_DOT":"-0.00000858","RCS_SIZE":"LARGE","REV_AT_EPOCH":"1086","EPOCH":"2023-05-07T16:19:13.626912","SITE":"AFWTR","TIME_SYSTEM":"UTC","EPHEMERIS_TYPE":"0","SEMIMAJOR_AXIS":"6737.278","NORAD_CAT_ID":"55764","MEAN_MOTION":"15.69914705","GP_ID":"231433040","ELEMENT_SET_NO":"999","PERIAPSIS":"356.776","CLASSIFICATION_TYPE":"U","DECAY_DATE":null,"BSTAR":"-0.00000536620000","RA_OF_ASC_NODE":"332.6698","MEAN_ELEMENT_THEORY":"SGP4","MEAN_MOTION_DDOT":"0.0000000000000","FILE":"3903413","MEAN_ANOMALY":"87.0203","TLE_LINE1":"1 55764U 23028Z   23127.68001883 -.00000858  00000-0 -53662-5 0  9991","CENTER_NAME":"EARTH"},{"LAUNCH_DATE":"2023-03-03","OBJECT_TYPE":"PAYLOAD","REF_FRAME":"TEME","TLE_LINE2":"2 55765  69.9992 332.6712 0003826 268.7014  91.3743 15.69912120 10863","ARG_OF_PERICENTER":"268.7014","ECCENTRICITY":"0.00038260","APOAPSIS":"361.728","COUNTRY_CODE":"US","INCLINATION":"69.9992","OBJECT_ID":"2023-028AA","OBJECT_NAME":"STARLINK-5595","PERIOD":"91.725","EPOCH":"2023-05-07T16:19:22.131264","SITE":"AFWTR","TIME_SYSTEM":"UTC","EPHEMERIS_TYPE":"0","SEMIMAJOR_AXIS":"6737.285","RCS_SIZE":"LARGE","MEAN_MOTION_DOT":"-0.00003169","REV_AT_EPOCH":"1086","BSTAR":"-0.00002460600000","DECAY_DATE":null,"RA_OF_ASC_NODE":"332.6712","NORAD_CAT_ID":"55765","MEAN_MOTION":"15.69912120","GP_ID":"231432791","ELEMENT_SET_NO":"999","PERIAPSIS":"356.573","CLASSIFICATION_TYPE":"U","TLE_LINE1":"1 55765U 23028AA  23127.68011726 -.00003169  00000-0 -24606-4 0  9992","CENTER_NAME":"EARTH","MEAN_ELEMENT_THEORY":"SGP4","MEAN_MOTION_DDOT":"0.0000000000000","FILE":"3903413","MEAN_ANOMALY":"91.3743"}];
